[{"OBJECT_NAME":"STARLINK-36188","OBJECT_ID":"2025-299W","EPOCH":"2026-02-25T20:25:30.421056","MEAN_MOTION":15.40774237,"ECCENTRICITY":0.00020352,"INCLINATION":42.9998,"RA_OF_ASC_NODE":236.8912,"ARG_OF_PERICENTER":282.7909,"MEAN_ANOMALY":77.272,"EPHEMERIS_TYPE":0,"CLASSIFICATION_TYPE":"U","NORAD_CAT_ID":67122,"ELEMENT_SET_NO":999,"REV_AT_EPOCH":1129,"BSTAR":0.001376869,"MEAN_MOTION_DOT":0.00057793,"MEAN_MOTION_DDOT":0},{"OBJECT_NAME":"STARLINK-36151","OBJECT_ID":"2025-299X","EPOCH":"2026-02-25T20:48:05.054688","MEAN_MOTION":15.40775823,"ECCENTRICITY":0.00022279,"INCLINATION":43.002,"RA_OF_ASC_NODE":237.0137,"ARG_OF_PERICENTER":272.44,"MEAN_ANOMALY":87.6201,"EPHEMERIS_TYPE":0,"CLASSIFICATION_TYPE":"U","NORAD_CAT_ID":67123,"ELEMENT_SET_NO":999,"REV_AT_EPOCH":1129,"BSTAR":0.0017390929,"MEAN_MOTION_DOT":0.0007323,"MEAN_MOTION_DDOT":0},{"OBJECT_NAME":"STARLINK-36195","OBJECT_ID":"2025-299Y","EPOCH":"2026-02-25T22:05:18.728160","MEAN_MOTION":15.40717747,"ECCENTRICITY":0.0001371,"INCLINATION":43.0002,"RA_OF_ASC_NODE":236.5555,"ARG_OF_PERICENTER":275.2078,"MEAN_ANOMALY":84.8623,"EPHEMERIS_TYPE":0,"CLASSIFICATION_TYPE":"U","NORAD_CAT_ID":67124,"ELEMENT_SET_NO":999,"REV_AT_EPOCH":1130,"BSTAR":0.0015933145,"MEAN_MOTION_DOT":0.00066878,"MEAN_MOTION_DDOT":0},{"OBJECT_NAME":"STARLINK-36219","OBJECT_ID":"2025-299Z","EPOCH":"2026-02-25T21:45:56.447712","MEAN_MOTION":15.40753351,"ECCENTRICITY":0.00038213,"INCLINATION":43.0009,"RA_OF_ASC_NODE":236.45,"ARG_OF_PERICENTER":245.9507,"MEAN_ANOMALY":114.095,"EPHEMERIS_TYPE":0,"CLASSIFICATION_TYPE":"U","NORAD_CAT_ID":67125,"ELEMENT_SET_NO":999,"REV_AT_EPOCH":1130,"BSTAR":0.0012042464,"MEAN_MOTION_DOT":0.00050432,"MEAN_MOTION_DDOT":0},{"OBJECT_NAME":"STARLINK-36223","OBJECT_ID":"2025-299AA","EPOCH":"2026-02-25T21:39:30.138624","MEAN_MOTION":15.40714015,"ECCENTRICITY":0.00019568,"INCLINATION":43,"RA_OF_ASC_NODE":236.4149,"ARG_OF_PERICENTER":273.9152,"MEAN_ANOMALY":86.148,"EPHEMERIS_TYPE":0,"CLASSIFICATION_TYPE":"U","NORAD_CAT_ID":67126,"ELEMENT_SET_NO":999,"REV_AT_EPOCH":1130,"BSTAR":0.00059738403,"MEAN_MOTION_DOT":0.00024743,"MEAN_MOTION_DDOT":0},{"OBJECT_NAME":"STARLINK-36164","OBJECT_ID":"2025-299AB","EPOCH":"2026-02-25T21:29:48.750432","MEAN_MOTION":15.40763686,"ECCENTRICITY":0.00046784,"INCLINATION":43.0073,"RA_OF_ASC_NODE":236.3673,"ARG_OF_PERICENTER":285.347,"MEAN_ANOMALY":74.6869,"EPHEMERIS_TYPE":0,"CLASSIFICATION_TYPE":"U","NORAD_CAT_ID":67127,"ELEMENT_SET_NO":999,"REV_AT_EPOCH":1130,"BSTAR":0.0010344548,"MEAN_MOTION_DOT":0.00043257,"MEAN_MOTION_DDOT":0},{"OBJECT_NAME":"STARLINK-35685","OBJECT_ID":"2025-299AC","EPOCH":"2026-02-25T20:41:37.514400","MEAN_MOTION":15.40685238,"ECCENTRICITY":0.0002263,"INCLINATION":43.0001,"RA_OF_ASC_NODE":236.9774,"ARG_OF_PERICENTER":277.1184,"MEAN_ANOMALY":82.9415,"EPHEMERIS_TYPE":0,"CLASSIFICATION_TYPE":"U","NORAD_CAT_ID":67128,"ELEMENT_SET_NO":999,"REV_AT_EPOCH":1129,"BSTAR":0.0011101973,"MEAN_MOTION_DOT":0.00046333,"MEAN_MOTION_DDOT":0},{"OBJECT_NAME":"STARLINK-36214","OBJECT_ID":"2025-299AD","EPOCH":"2026-02-25T21:23:22.153632","MEAN_MOTION":15.40722946,"ECCENTRICITY":0.00022323,"INCLINATION":43.0009,"RA_OF_ASC_NODE":236.3284,"ARG_OF_PERICENTER":274.5463,"MEAN_ANOMALY":85.5139,"EPHEMERIS_TYPE":0,"CLASSIFICATION_TYPE":"U","NORAD_CAT_ID":67129,"ELEMENT_SET_NO":999,"REV_AT_EPOCH":1130,"BSTAR":0.0012754827,"MEAN_MOTION_DOT":0.00053393,"MEAN_MOTION_DDOT":0},{"OBJECT_NAME":"STARLINK-36194","OBJECT_ID":"2025-299AE","EPOCH":"2026-02-25T20:09:22.800672","MEAN_MOTION":15.40742771,"ECCENTRICITY":0.00012038,"INCLINATION":42.9997,"RA_OF_ASC_NODE":236.8071,"ARG_OF_PERICENTER":290.0509,"MEAN_ANOMALY":70.0218,"EPHEMERIS_TYPE":0,"CLASSIFICATION_TYPE":"U","NORAD_CAT_ID":67130,"ELEMENT_SET_NO":999,"REV_AT_EPOCH":1129,"BSTAR":0.0010804041,"MEAN_MOTION_DOT":0.00045159,"MEAN_MOTION_DDOT":0},{"OBJECT_NAME":"STARLINK-36182","OBJECT_ID":"2025-304A","EPOCH":"2026-02-25T12:47:49.337952","MEAN_MOTION":14.98337155,"ECCENTRICITY":0.0003482,"INCLINATION":70.0013,"RA_OF_ASC_NODE":205.117,"ARG_OF_PERICENTER":267.6912,"MEAN_ANOMALY":92.3849,"EPHEMERIS_TYPE":0,"CLASSIFICATION_TYPE":"U","NORAD_CAT_ID":67192,"ELEMENT_SET_NO":999,"REV_AT_EPOCH":1203,"BSTAR":0.00017028,"MEAN_MOTION_DOT":1.94e-5,"MEAN_MOTION_DDOT":0},{"OBJECT_NAME":"STARLINK-36279","OBJECT_ID":"2025-304B","EPOCH":"2026-02-25T19:19:01.816032","MEAN_MOTION":14.99142846,"ECCENTRICITY":0.00036081,"INCLINATION":69.9984,"RA_OF_ASC_NODE":204.451,"ARG_OF_PERICENTER":273.9736,"MEAN_ANOMALY":86.1011,"EPHEMERIS_TYPE":0,"CLASSIFICATION_TYPE":"U","NORAD_CAT_ID":67193,"ELEMENT_SET_NO":999,"REV_AT_EPOCH":1210,"BSTAR":0.00083367976,"MEAN_MOTION_DOT":0.0001008,"MEAN_MOTION_DDOT":0},{"OBJECT_NAME":"STARLINK-36284","OBJECT_ID":"2025-304C","EPOCH":"2026-02-26T06:00:02.000160","MEAN_MOTION":14.98301934,"ECCENTRICITY":0.00038979,"INCLINATION":70.0003,"RA_OF_ASC_NODE":203.4053,"ARG_OF_PERICENTER":274.6772,"MEAN_ANOMALY":261.6313,"EPHEMERIS_TYPE":0,"CLASSIFICATION_TYPE":"U","NORAD_CAT_ID":67194,"ELEMENT_SET_NO":999,"REV_AT_EPOCH":590,"BSTAR":0.0059490544,"MEAN_MOTION_DOT":0.00071571,"MEAN_MOTION_DDOT":0},{"OBJECT_NAME":"STARLINK-36291","OBJECT_ID":"2025-304D","EPOCH":"2026-02-25T20:10:16.564800","MEAN_MOTION":14.99157083,"ECCENTRICITY":0.00035381,"INCLINATION":70.0001,"RA_OF_ASC_NODE":204.5766,"ARG_OF_PERICENTER":270.5986,"MEAN_ANOMALY":89.4768,"EPHEMERIS_TYPE":0,"CLASSIFICATION_TYPE":"U","NORAD_CAT_ID":67195,"ELEMENT_SET_NO":999,"REV_AT_EPOCH":1210,"BSTAR":0.00063225135,"MEAN_MOTION_DOT":7.622e-5,"MEAN_MOTION_DDOT":0},{"OBJECT_NAME":"STARLINK-36239","OBJECT_ID":"2025-304E","EPOCH":"2026-02-25T16:41:55.894848","MEAN_MOTION":14.98338766,"ECCENTRICITY":0.0002935,"INCLINATION":70.0005,"RA_OF_ASC_NODE":204.8789,"ARG_OF_PERICENTER":277.0775,"MEAN_ANOMALY":83.005,"EPHEMERIS_TYPE":0,"CLASSIFICATION_TYPE":"U","NORAD_CAT_ID":67196,"ELEMENT_SET_NO":999,"REV_AT_EPOCH":1208,"BSTAR":0.00039035,"MEAN_MOTION_DOT":4.569e-5,"MEAN_MOTION_DDOT":0},{"OBJECT_NAME":"STARLINK-36283","OBJECT_ID":"2025-304F","EPOCH":"2026-02-25T12:17:32.492832","MEAN_MOTION":14.9834756,"ECCENTRICITY":0.00033506,"INCLINATION":70.0005,"RA_OF_ASC_NODE":205.0352,"ARG_OF_PERICENTER":271.9571,"MEAN_ANOMALY":88.1205,"EPHEMERIS_TYPE":0,"CLASSIFICATION_TYPE":"U","NORAD_CAT_ID":67197,"ELEMENT_SET_NO":999,"REV_AT_EPOCH":1206,"BSTAR":0.00048548329,"MEAN_MOTION_DOT":5.707e-5,"MEAN_MOTION_DDOT":0},{"OBJECT_NAME":"STARLINK-36267","OBJECT_ID":"2025-304G","EPOCH":"2026-02-26T06:00:02.000160","MEAN_MOTION":14.98300332,"ECCENTRICITY":0.00032662,"INCLINATION":70,"RA_OF_ASC_NODE":203.3534,"ARG_OF_PERICENTER":275.328,"MEAN_ANOMALY":305.9937,"EPHEMERIS_TYPE":0,"CLASSIFICATION_TYPE":"U","NORAD_CAT_ID":67198,"ELEMENT_SET_NO":999,"REV_AT_EPOCH":559,"BSTAR":0.0059180009,"MEAN_MOTION_DOT":0.00071188,"MEAN_MOTION_DDOT":0},{"OBJECT_NAME":"STARLINK-36268","OBJECT_ID":"2025-304H","EPOCH":"2026-02-26T06:00:02.000160","MEAN_MOTION":14.98300192,"ECCENTRICITY":0.00030364,"INCLINATION":70.0001,"RA_OF_ASC_NODE":203.3987,"ARG_OF_PERICENTER":270.3885,"MEAN_ANOMALY":265.0296,"EPHEMERIS_TYPE":0,"CLASSIFICATION_TYPE":"U","NORAD_CAT_ID":67199,"ELEMENT_SET_NO":999,"REV_AT_EPOCH":590,"BSTAR":0.0057428256,"MEAN_MOTION_DOT":0.00069056,"MEAN_MOTION_DDOT":0},{"OBJECT_NAME":"STARLINK-36270","OBJECT_ID":"2025-304J","EPOCH":"2026-02-25T15:59:47.185440","MEAN_MOTION":14.99145549,"ECCENTRICITY":0.0003185,"INCLINATION":70.0009,"RA_OF_ASC_NODE":204.7777,"ARG_OF_PERICENTER":276.8332,"MEAN_ANOMALY":83.2465,"EPHEMERIS_TYPE":0,"CLASSIFICATION_TYPE":"U","NORAD_CAT_ID":67200,"ELEMENT_SET_NO":999,"REV_AT_EPOCH":1208,"BSTAR":0.00044518,"MEAN_MOTION_DOT":5.336e-5,"MEAN_MOTION_DDOT":0},{"OBJECT_NAME":"STARLINK-36262","OBJECT_ID":"2025-304K","EPOCH":"2026-02-25T11:47:31.096896","MEAN_MOTION":14.98338272,"ECCENTRICITY":0.00032871,"INCLINATION":70.0003,"RA_OF_ASC_NODE":205.368,"ARG_OF_PERICENTER":271.5071,"MEAN_ANOMALY":88.5712,"EPHEMERIS_TYPE":0,"CLASSIFICATION_TYPE":"U","NORAD_CAT_ID":67201,"ELEMENT_SET_NO":999,"REV_AT_EPOCH":1205,"BSTAR":0.00025301963,"MEAN_MOTION_DOT":2.928e-5,"MEAN_MOTION_DDOT":0},{"OBJECT_NAME":"STARLINK-36263","OBJECT_ID":"2025-304L","EPOCH":"2026-02-26T06:00:02.000160","MEAN_MOTION":14.9831271,"ECCENTRICITY":0.00031265,"INCLINATION":70,"RA_OF_ASC_NODE":203.3785,"ARG_OF_PERICENTER":284.8241,"MEAN_ANOMALY":273.9509,"EPHEMERIS_TYPE":0,"CLASSIFICATION_TYPE":"U","NORAD_CAT_ID":67202,"ELEMENT_SET_NO":999,"REV_AT_EPOCH":590,"BSTAR":0.0059985556,"MEAN_MOTION_DOT":0.00072191,"MEAN_MOTION_DDOT":0},{"OBJECT_NAME":"STARLINK-36224","OBJECT_ID":"2025-304M","EPOCH":"2026-02-25T15:53:19.055904","MEAN_MOTION":14.97528873,"ECCENTRICITY":0.0003862,"INCLINATION":70.0009,"RA_OF_ASC_NODE":204.7578,"ARG_OF_PERICENTER":261.2305,"MEAN_ANOMALY":98.8416,"EPHEMERIS_TYPE":0,"CLASSIFICATION_TYPE":"U","NORAD_CAT_ID":67203,"ELEMENT_SET_NO":999,"REV_AT_EPOCH":1208,"BSTAR":0.00048147,"MEAN_MOTION_DOT":5.54e-5,"MEAN_MOTION_DDOT":0},{"OBJECT_NAME":"STARLINK-36185","OBJECT_ID":"2025-304N","EPOCH":"2026-02-25T15:54:48.727008","MEAN_MOTION":14.99145086,"ECCENTRICITY":0.0003305,"INCLINATION":70.0013,"RA_OF_ASC_NODE":204.7599,"ARG_OF_PERICENTER":274.4473,"MEAN_ANOMALY":85.6309,"EPHEMERIS_TYPE":0,"CLASSIFICATION_TYPE":"U","NORAD_CAT_ID":67204,"ELEMENT_SET_NO":999,"REV_AT_EPOCH":1208,"BSTAR":0.00026682,"MEAN_MOTION_DOT":3.159e-5,"MEAN_MOTION_DDOT":0},{"OBJECT_NAME":"STARLINK-36197","OBJECT_ID":"2025-304P","EPOCH":"2026-02-25T20:13:03.673632","MEAN_MOTION":14.99147575,"ECCENTRICITY":0.00036653,"INCLINATION":70.0009,"RA_OF_ASC_NODE":204.1804,"ARG_OF_PERICENTER":269.414,"MEAN_ANOMALY":90.66,"EPHEMERIS_TYPE":0,"CLASSIFICATION_TYPE":"U","NORAD_CAT_ID":67205,"ELEMENT_SET_NO":999,"REV_AT_EPOCH":1208,"BSTAR":0.00032543717,"MEAN_MOTION_DOT":3.875e-5,"MEAN_MOTION_DDOT":0}]
